HULIANWANG DIGUI-153    
1 67529U 26013H   26043.26406470 -.00000125  00000+0  16334-4 0  9994
2 67529  50.0072  89.4374 0001301 322.0954  37.9849 13.79514550  3339
HULIANWANG DIGUI-154    
1 67530U 26013J   26043.33376307  .00000033  00000+0  16974-3 0  9995
2 67530  50.0011  89.1466 0004223 185.3162 174.7688 13.79360636  3346
CZ-12 R/B               
1 67531U 26013K   26044.30903653 -.00000106  00000+0  24917-4 0  9993
2 67531  49.9940  81.6091 0069052 213.8608 145.7882 14.14458025  3534
STARLINK-36587          
1 67532U 26014A   26046.14067727  .00155963  00000+0  79939-3 0  9996
2 67532  97.2832 289.9608 0001913 120.5261 239.6196 15.80845695  5023
STARLINK-36417          
1 67533U 26014B   26046.17427613  .00129578  00000+0  85592-3 0  9999
2 67533  97.2845 289.9136 0001500  57.6694 302.4716 15.75205655  5023
STARLINK-36576          
1 67534U 26014C   26046.13949704  .00058586  00000+0  31658-3 0  9990
2 67534  97.2830 289.9625 0004338  22.1476 337.9978 15.79951852  5022
STARLINK-36574          
1 67535U 26014D   26046.13800321  .00209276  00000+0  10642-2 0  9995
2 67535  97.2833 289.9645 0000846 129.4705 230.6638 15.80878840  5023
STARLINK-36572          
1 67536U 26014E   26046.16050507  .00113489  00000+0  75055-3 0  9992
2 67536  97.2845 289.9326 0001801 145.3908 214.7475 15.75224172  5026
STARLINK-36561          
1 67537U 26014F   26046.16649467  .00087764  00000+0  58237-3 0  9991
2 67537  97.2852 289.9223 0001700 113.7859 246.3584 15.75224194  5029
STARLINK-36397          
1 67538U 26014G   26046.17039400  .00225016  00000+0  14666-2 0  9994
2 67538  97.2849 289.9176 0001659 103.7372 256.4078 15.75243964  5021
STARLINK-36573          
1 67539U 26014H   26046.13390439  .00263973  00000+0  13328-2 0  9991
2 67539  97.2836 289.9685 0001381  76.6356 283.5066 15.80895201  5026
STARLINK-36585          
1 67540U 26014J   26046.16227768  .00260882  00000+0  16918-2 0  9994
2 67540  97.2853 289.9264 0001813  77.7778 282.3690 15.75261740  5029
