CCSDS_OMM_VERS = 2.0
CREATION_DATE  = 
ORIGINATOR     = 

OBJECT_NAME    = HULIANWANG DIGUI-153
OBJECT_ID      = 2026-013H
CENTER_NAME    = EARTH
REF_FRAME      = TEME
TIME_SYSTEM    = UTC
MEAN_ELEMENT_THEORY = SGP/SGP4

EPOCH          = 2026-02-12T06:20:15.190080
MEAN_MOTION    = 13.79514550
ECCENTRICITY   = .0001301
INCLINATION    = 50.0072
RA_OF_ASC_NODE = 89.4374
ARG_OF_PERICENTER = 322.0954
MEAN_ANOMALY   = 37.9849

EPHEMERIS_TYPE = 0
CLASSIFICATION_TYPE = U
NORAD_CAT_ID   = 67529
ELEMENT_SET_NO = 999
REV_AT_EPOCH   = 333
BSTAR          = .16333987E-4
MEAN_MOTION_DOT = -.125E-5
MEAN_MOTION_DDOT = 0

CCSDS_OMM_VERS = 2.0
CREATION_DATE  = 
ORIGINATOR     = 

OBJECT_NAME    = HULIANWANG DIGUI-154
OBJECT_ID      = 2026-013J
CENTER_NAME    = EARTH
REF_FRAME      = TEME
TIME_SYSTEM    = UTC
MEAN_ELEMENT_THEORY = SGP/SGP4

EPOCH          = 2026-02-12T08:00:37.129248
MEAN_MOTION    = 13.79360636
ECCENTRICITY   = .0004223
INCLINATION    = 50.0011
RA_OF_ASC_NODE = 89.1466
ARG_OF_PERICENTER = 185.3162
MEAN_ANOMALY   = 174.7688

EPHEMERIS_TYPE = 0
CLASSIFICATION_TYPE = U
NORAD_CAT_ID   = 67530
ELEMENT_SET_NO = 999
REV_AT_EPOCH   = 334
BSTAR          = .16974E-3
MEAN_MOTION_DOT = .33E-6
MEAN_MOTION_DDOT = 0

CCSDS_OMM_VERS = 2.0
CREATION_DATE  = 
ORIGINATOR     = 

OBJECT_NAME    = CZ-12 R/B
OBJECT_ID      = 2026-013K
CENTER_NAME    = EARTH
REF_FRAME      = TEME
TIME_SYSTEM    = UTC
MEAN_ELEMENT_THEORY = SGP/SGP4

EPOCH          = 2026-02-13T07:25:00.756192
MEAN_MOTION    = 14.14458025
ECCENTRICITY   = .0069052
INCLINATION    = 49.9940
RA_OF_ASC_NODE = 81.6091
ARG_OF_PERICENTER = 213.8608
MEAN_ANOMALY   = 145.7882

EPHEMERIS_TYPE = 0
CLASSIFICATION_TYPE = U
NORAD_CAT_ID   = 67531
ELEMENT_SET_NO = 999
REV_AT_EPOCH   = 353
BSTAR          = .24917E-4
MEAN_MOTION_DOT = -.106E-5
MEAN_MOTION_DDOT = 0

CCSDS_OMM_VERS = 2.0
CREATION_DATE  = 
ORIGINATOR     = 

OBJECT_NAME    = STARLINK-36587
OBJECT_ID      = 2026-014A
CENTER_NAME    = EARTH
REF_FRAME      = TEME
TIME_SYSTEM    = UTC
MEAN_ELEMENT_THEORY = SGP/SGP4

EPOCH          = 2026-02-15T03:22:34.516128
MEAN_MOTION    = 15.80845695
ECCENTRICITY   = .0001913
INCLINATION    = 97.2832
RA_OF_ASC_NODE = 289.9608
ARG_OF_PERICENTER = 120.5261
MEAN_ANOMALY   = 239.6196

EPHEMERIS_TYPE = 0
CLASSIFICATION_TYPE = U
NORAD_CAT_ID   = 67532
ELEMENT_SET_NO = 999
REV_AT_EPOCH   = 502
BSTAR          = .79939E-3
MEAN_MOTION_DOT = .155963E-2
MEAN_MOTION_DDOT = 0

CCSDS_OMM_VERS = 2.0
CREATION_DATE  = 
ORIGINATOR     = 

OBJECT_NAME    = STARLINK-36417
OBJECT_ID      = 2026-014B
CENTER_NAME    = EARTH
REF_FRAME      = TEME
TIME_SYSTEM    = UTC
MEAN_ELEMENT_THEORY = SGP/SGP4

EPOCH          = 2026-02-15T04:10:57.457632
MEAN_MOTION    = 15.75205655
ECCENTRICITY   = .00015
INCLINATION    = 97.2845
RA_OF_ASC_NODE = 289.9136
ARG_OF_PERICENTER = 57.6694
MEAN_ANOMALY   = 302.4716

EPHEMERIS_TYPE = 0
CLASSIFICATION_TYPE = U
NORAD_CAT_ID   = 67533
ELEMENT_SET_NO = 999
REV_AT_EPOCH   = 502
BSTAR          = .85592E-3
MEAN_MOTION_DOT = .129578E-2
MEAN_MOTION_DDOT = 0

CCSDS_OMM_VERS = 2.0
CREATION_DATE  = 
ORIGINATOR     = 

OBJECT_NAME    = STARLINK-36576
OBJECT_ID      = 2026-014C
CENTER_NAME    = EARTH
REF_FRAME      = TEME
TIME_SYSTEM    = UTC
MEAN_ELEMENT_THEORY = SGP/SGP4

EPOCH          = 2026-02-15T03:20:52.544256
MEAN_MOTION    = 15.79951852
ECCENTRICITY   = .0004338
INCLINATION    = 97.2830
RA_OF_ASC_NODE = 289.9625
ARG_OF_PERICENTER = 22.1476
MEAN_ANOMALY   = 337.9978

EPHEMERIS_TYPE = 0
CLASSIFICATION_TYPE = U
NORAD_CAT_ID   = 67534
ELEMENT_SET_NO = 999
REV_AT_EPOCH   = 502
BSTAR          = .31658E-3
MEAN_MOTION_DOT = .58586E-3
MEAN_MOTION_DDOT = 0

CCSDS_OMM_VERS = 2.0
CREATION_DATE  = 
ORIGINATOR     = 

OBJECT_NAME    = STARLINK-36574
OBJECT_ID      = 2026-014D
CENTER_NAME    = EARTH
REF_FRAME      = TEME
TIME_SYSTEM    = UTC
MEAN_ELEMENT_THEORY = SGP/SGP4

EPOCH          = 2026-02-15T03:18:43.477344
MEAN_MOTION    = 15.80878840
ECCENTRICITY   = .0000846
INCLINATION    = 97.2833
RA_OF_ASC_NODE = 289.9645
ARG_OF_PERICENTER = 129.4705
MEAN_ANOMALY   = 230.6638

EPHEMERIS_TYPE = 0
CLASSIFICATION_TYPE = U
NORAD_CAT_ID   = 67535
ELEMENT_SET_NO = 999
REV_AT_EPOCH   = 502
BSTAR          = .10642E-2
MEAN_MOTION_DOT = .209276E-2
MEAN_MOTION_DDOT = 0

CCSDS_OMM_VERS = 2.0
CREATION_DATE  = 
ORIGINATOR     = 

OBJECT_NAME    = STARLINK-36572
OBJECT_ID      = 2026-014E
CENTER_NAME    = EARTH
REF_FRAME      = TEME
TIME_SYSTEM    = UTC
MEAN_ELEMENT_THEORY = SGP/SGP4

EPOCH          = 2026-02-15T03:51:07.638048
MEAN_MOTION    = 15.75224172
ECCENTRICITY   = .0001801
INCLINATION    = 97.2845
RA_OF_ASC_NODE = 289.9326
ARG_OF_PERICENTER = 145.3908
MEAN_ANOMALY   = 214.7475

EPHEMERIS_TYPE = 0
CLASSIFICATION_TYPE = U
NORAD_CAT_ID   = 67536
ELEMENT_SET_NO = 999
REV_AT_EPOCH   = 502
BSTAR          = .75055E-3
MEAN_MOTION_DOT = .113489E-2
MEAN_MOTION_DDOT = 0

CCSDS_OMM_VERS = 2.0
CREATION_DATE  = 
ORIGINATOR     = 

OBJECT_NAME    = STARLINK-36561
OBJECT_ID      = 2026-014F
CENTER_NAME    = EARTH
REF_FRAME      = TEME
TIME_SYSTEM    = UTC
MEAN_ELEMENT_THEORY = SGP/SGP4

EPOCH          = 2026-02-15T03:59:45.139488
MEAN_MOTION    = 15.75224194
ECCENTRICITY   = .00017
INCLINATION    = 97.2852
RA_OF_ASC_NODE = 289.9223
ARG_OF_PERICENTER = 113.7859
MEAN_ANOMALY   = 246.3584

EPHEMERIS_TYPE = 0
CLASSIFICATION_TYPE = U
NORAD_CAT_ID   = 67537
ELEMENT_SET_NO = 999
REV_AT_EPOCH   = 502
BSTAR          = .58237E-3
MEAN_MOTION_DOT = .87764E-3
MEAN_MOTION_DDOT = 0

CCSDS_OMM_VERS = 2.0
CREATION_DATE  = 
ORIGINATOR     = 

OBJECT_NAME    = STARLINK-36397
OBJECT_ID      = 2026-014G
CENTER_NAME    = EARTH
REF_FRAME      = TEME
TIME_SYSTEM    = UTC
MEAN_ELEMENT_THEORY = SGP/SGP4

EPOCH          = 2026-02-15T04:05:22.041600
MEAN_MOTION    = 15.75243964
ECCENTRICITY   = .0001659
INCLINATION    = 97.2849
RA_OF_ASC_NODE = 289.9176
ARG_OF_PERICENTER = 103.7372
MEAN_ANOMALY   = 256.4078

EPHEMERIS_TYPE = 0
CLASSIFICATION_TYPE = U
NORAD_CAT_ID   = 67538
ELEMENT_SET_NO = 999
REV_AT_EPOCH   = 502
BSTAR          = .14666E-2
MEAN_MOTION_DOT = .225016E-2
MEAN_MOTION_DDOT = 0

CCSDS_OMM_VERS = 2.0
CREATION_DATE  = 
ORIGINATOR     = 

OBJECT_NAME    = STARLINK-36573
OBJECT_ID      = 2026-014H
CENTER_NAME    = EARTH
REF_FRAME      = TEME
TIME_SYSTEM    = UTC
MEAN_ELEMENT_THEORY = SGP/SGP4

EPOCH          = 2026-02-15T03:12:49.339296
MEAN_MOTION    = 15.80895201
ECCENTRICITY   = .0001381
INCLINATION    = 97.2836
RA_OF_ASC_NODE = 289.9685
ARG_OF_PERICENTER = 76.6356
MEAN_ANOMALY   = 283.5066

EPHEMERIS_TYPE = 0
CLASSIFICATION_TYPE = U
NORAD_CAT_ID   = 67539
ELEMENT_SET_NO = 999
REV_AT_EPOCH   = 502
BSTAR          = .13328E-2
MEAN_MOTION_DOT = .263973E-2
MEAN_MOTION_DDOT = 0

CCSDS_OMM_VERS = 2.0
CREATION_DATE  = 
ORIGINATOR     = 

OBJECT_NAME    = STARLINK-36585
OBJECT_ID      = 2026-014J
CENTER_NAME    = EARTH
REF_FRAME      = TEME
TIME_SYSTEM    = UTC
MEAN_ELEMENT_THEORY = SGP/SGP4

EPOCH          = 2026-02-15T03:53:40.791552
MEAN_MOTION    = 15.75261740
ECCENTRICITY   = .0001813
INCLINATION    = 97.2853
RA_OF_ASC_NODE = 289.9264
ARG_OF_PERICENTER = 77.7778
MEAN_ANOMALY   = 282.3690

EPHEMERIS_TYPE = 0
CLASSIFICATION_TYPE = U
NORAD_CAT_ID   = 67540
ELEMENT_SET_NO = 999
REV_AT_EPOCH   = 502
BSTAR          = .16918E-2
MEAN_MOTION_DOT = .260882E-2
MEAN_MOTION_DDOT = 0

